$$SOE
2461281.500000000, A.D. 2026-Aug-29 00:00:00.0000, -2.535201758404857E+09, -6.021023364726117E+09, 1.251508219249764E+09,
2461288.500000000, A.D. 2026-Sep-05 00:00:00.0000, -2.532964990056649E+09, -6.022401487744612E+09, 1.251552227566797E+09,
2461295.500000000, A.D. 2026-Sep-12 00:00:00.0000, -2.530727774960851E+09, -6.023778665815425E+09, 1.251596029081624E+09,
2461302.500000000, A.D. 2026-Sep-19 00:00:00.0000, -2.528490115120834E+09, -6.025154899873005E+09, 1.251639623977401E+09,
2461309.500000000, A.D. 2026-Sep-26 00:00:00.0000, -2.526252012161435E+09, -6.026530191434166E+09, 1.251683012389223E+09,
2461316.500000000, A.D. 2026-Oct-03 00:00:00.0000, -2.524013467258709E+09, -6.027904542362711E+09, 1.251726194413805E+09,
2461323.500000000, A.D. 2026-Oct-10 00:00:00.0000, -2.521774481156278E+09, -6.029277954726763E+09, 1.251769170118606E+09,
2461330.500000000, A.D. 2026-Oct-17 00:00:00.0000, -2.519535054216610E+09, -6.030650430729626E+09, 1.251811939547282E+09,
2461337.500000000, A.D. 2026-Oct-24 00:00:00.0000, -2.517295186482866E+09, -6.032021972736740E+09, 1.251854502717497E+09,
2461344.500000000, A.D. 2026-Oct-31 00:00:00.0000, -2.515054877652529E+09, -6.033392583465365E+09, 1.251896859596697E+09,
2461351.500000000, A.D. 2026-Nov-07 00:00:00.0000, -2.512814126623751E+09, -6.034762266262895E+09, 1.251939010030962E+09,
2461358.500000000, A.D. 2026-Nov-14 00:00:00.0000, -2.510572930413561E+09, -6.036131024586365E+09, 1.251980953681249E+09,
2461365.500000000, A.D. 2026-Nov-21 00:00:00.0000, -2.508331284259654E+09, -6.037498860001341E+09, 1.252022690189148E+09,
2461372.500000000, A.D. 2026-Nov-28 00:00:00.0000, -2.506089183903881E+09, -6.038865771708154E+09, 1.252064219418108E+09,
2461379.500000000, A.D. 2026-Dec-05 00:00:00.0000, -2.503846626437889E+09, -6.040231758251909E+09, 1.252105541384846E+09,
2461386.500000000, A.D. 2026-Dec-12 00:00:00.0000, -2.501603609545991E+09, -6.041596818305204E+09, 1.252146656120301E+09,
2461393.500000000, A.D. 2026-Dec-19 00:00:00.0000, -2.499360131032533E+09, -6.042960950517181E+09, 1.252187563634029E+09,
2461400.500000000, A.D. 2026-Dec-26 00:00:00.0000, -2.497116188776174E+09, -6.044324153296992E+09, 1.252228263924393E+09,
2461407.500000000, A.D. 2027-Jan-02 00:00:00.0000, -2.494871780835529E+09, -6.045686424722649E+09, 1.252268756993798E+09,
2461414.500000000, A.D. 2027-Jan-09 00:00:00.0000, -2.492626905589812E+09, -6.047047762555353E+09, 1.252309042860031E+09,
2461421.500000000, A.D. 2027-Jan-16 00:00:00.0000, -2.490381561880220E+09, -6.048408164350622E+09, 1.252349121561259E+09,
2461428.500000000, A.D. 2027-Jan-23 00:00:00.0000, -2.488135749107457E+09, -6.049767627706096E+09, 1.252388993147243E+09,
2461435.500000000, A.D. 2027-Jan-30 00:00:00.0000, -2.485889467099279E+09, -6.051126150693980E+09, 1.252428657635623E+09,
2461442.500000000, A.D. 2027-Feb-06 00:00:00.0000, -2.483642715324981E+09, -6.052483732138235E+09, 1.252468114921999E+09,
2461449.500000000, A.D. 2027-Feb-13 00:00:00.0000, -2.481395491918677E+09, -6.053840370517000E+09, 1.252507364785596E+09,
2461456.500000000, A.D. 2027-Feb-20 00:00:00.0000, -2.479147794876594E+09, -6.055196062281303E+09, 1.252546407142471E+09,
2461463.500000000, A.D. 2027-Feb-27 00:00:00.0000, -2.476899624033391E+09, -6.056550802803812E+09, 1.252585242155430E+09,
2461470.500000000, A.D. 2027-Mar-06 00:00:00.0000, -2.474650980800024E+09, -6.057904588035068E+09, 1.252623870080746E+09,
2461477.500000000, A.D. 2027-Mar-13 00:00:00.0000, -2.472401867263684E+09, -6.059257414817700E+09, 1.252662291165741E+09,
2461484.500000000, A.D. 2027-Mar-20 00:00:00.0000, -2.470152285779382E+09, -6.060609280693326E+09, 1.252700505632430E+09,
2461491.500000000, A.D. 2027-Mar-27 00:00:00.0000, -2.467902238851207E+09, -6.061960183751048E+09, 1.252738513683709E+09,
2461498.500000000, A.D. 2027-Apr-03 00:00:00.0000, -2.465651729100369E+09, -6.063310122565278E+09, 1.252776315509442E+09,
2461505.500000000, A.D. 2027-Apr-10 00:00:00.0000, -2.463400759258772E+09, -6.064659096199844E+09, 1.252813911288672E+09,
2461512.500000000, A.D. 2027-Apr-17 00:00:00.0000, -2.461149332166057E+09, -6.066007104292671E+09, 1.252851301184684E+09,
2461519.500000000, A.D. 2027-Apr-24 00:00:00.0000, -2.458897450690885E+09, -6.067354147283230E+09, 1.252888485320575E+09,
2461526.500000000, A.D. 2027-May-01 00:00:00.0000, -2.456645117276850E+09, -6.068700226754887E+09, 1.252925463710100E+09,
2461533.500000000, A.D. 2027-May-08 00:00:00.0000, -2.454392332805597E+09, -6.070045345143834E+09, 1.252962236176789E+09,
2461540.500000000, A.D. 2027-May-15 00:00:00.0000, -2.452139096274044E+09, -6.071389503861091E+09, 1.252998802476536E+09,
2461547.500000000, A.D. 2027-May-22 00:00:00.0000, -2.449885406849558E+09, -6.072732702419237E+09, 1.253035162555361E+09,
2461554.500000000, A.D. 2027-May-29 00:00:00.0000, -2.447631264947160E+09, -6.074074940032095E+09, 1.253071316514595E+09,
2461561.500000000, A.D. 2027-Jun-05 00:00:00.0000, -2.445376671443928E+09, -6.075416216555649E+09, 1.253107264458398E+09,
2461568.500000000, A.D. 2027-Jun-12 00:00:00.0000, -2.443121627038111E+09, -6.076756532338357E+09, 1.253143006443092E+09,
2461575.500000000, A.D. 2027-Jun-19 00:00:00.0000, -2.440866132083989E+09, -6.078095887915925E+09, 1.253178542482437E+09,
2461582.500000000, A.D. 2027-Jun-26 00:00:00.0000, -2.438610186623060E+09, -6.079434283811804E+09, 1.253213872562029E+09,
2461589.500000000, A.D. 2027-Jul-03 00:00:00.0000, -2.436353790479419E+09, -6.080771720435149E+09, 1.253248996651591E+09,
2461596.500000000, A.D. 2027-Jul-10 00:00:00.0000, -2.434096943382492E+09, -6.082108198067496E+09, 1.253283914712748E+09,
2461603.500000000, A.D. 2027-Jul-17 00:00:00.0000, -2.431839645080780E+09, -6.083443716977033E+09, 1.253318626696004E+09,
2461610.500000000, A.D. 2027-Jul-24 00:00:00.0000, -2.429581895290172E+09, -6.084778277723260E+09, 1.253353132507704E+09,
2461617.500000000, A.D. 2027-Jul-31 00:00:00.0000, -2.427323693065419E+09, -6.086111881416516E+09, 1.253387431928705E+09,
2461624.500000000, A.D. 2027-Aug-07 00:00:00.0000, -2.425065035795464E+09, -6.087444528780687E+09, 1.253421524597498E+09,
2461631.500000000, A.D. 2027-Aug-14 00:00:00.0000, -2.422805920123780E+09, -6.088776218272331E+09, 1.253455410248194E+09,
2461638.500000000, A.D. 2027-Aug-21 00:00:00.0000, -2.420546344175458E+09, -6.090106946620488E+09, 1.253489088871831E+09,
2461645.500000000, A.D. 2027-Aug-28 00:00:00.0000, -2.418286307660027E+09, -6.091436710583891E+09, 1.253522560584573E+09,
2461652.500000000, A.D. 2027-Sep-04 00:00:00.0000, -2.416025811031107E+09, -6.092765507423300E+09, 1.253555825515531E+09,
2461659.500000000, A.D. 2027-Sep-11 00:00:00.0000, -2.413764855098253E+09, -6.094093334750275E+09, 1.253588883787937E+09,
2461666.500000000, A.D. 2027-Sep-18 00:00:00.0000, -2.411503440957769E+09, -6.095420190402430E+09, 1.253621735528058E+09,
2461673.500000000, A.D. 2027-Sep-25 00:00:00.0000, -2.409241570013658E+09, -6.096746072422579E+09, 1.253654380874269E+09,
2461680.500000000, A.D. 2027-Oct-02 00:00:00.0000, -2.406979244013621E+09, -6.098070979113911E+09, 1.253686819981386E+09,
2461687.500000000, A.D. 2027-Oct-09 00:00:00.0000, -2.404716465077608E+09, -6.099394909175229E+09, 1.253719053017565E+09,
2461694.500000000, A.D. 2027-Oct-16 00:00:00.0000, -2.402453235655633E+09, -6.100717861970789E+09, 1.253751080143279E+09,
2461701.500000000, A.D. 2027-Oct-23 00:00:00.0000, -2.400189558154868E+09, -6.102039837939977E+09, 1.253782901447870E+09,
2461708.500000000, A.D. 2027-Oct-30 00:00:00.0000, -2.397925433861145E+09, -6.103360838536184E+09, 1.253814516859059E+09,
2461715.500000000, A.D. 2027-Nov-06 00:00:00.0000, -2.395660862318210E+09, -6.104680864566432E+09, 1.253845926224198E+09,
2461722.500000000, A.D. 2027-Nov-13 00:00:00.0000, -2.393395843150074E+09, -6.105999915007748E+09, 1.253877129575629E+09,
2461729.500000000, A.D. 2027-Nov-20 00:00:00.0000, -2.391130377424541E+09, -6.107317988485977E+09, 1.253908127135351E+09,
2461736.500000000, A.D. 2027-Nov-27 00:00:00.0000, -2.388864466940335E+09, -6.108635084452471E+09, 1.253938919152917E+09,
2461743.500000000, A.D. 2027-Dec-04 00:00:00.0000, -2.386598113461336E+09, -6.109951203144632E+09, 1.253969505836899E+09,
2461750.500000000, A.D. 2027-Dec-11 00:00:00.0000, -2.384331318448513E+09, -6.111266345294189E+09, 1.253999887351664E+09,
2461757.500000000, A.D. 2027-Dec-18 00:00:00.0000, -2.382064083014569E+09, -6.112580511922243E+09, 1.254030063826632E+09,
2461764.500000000, A.D. 2027-Dec-25 00:00:00.0000, -2.379796407949309E+09, -6.113893704223091E+09, 1.254060035363967E+09,
2461771.500000000, A.D. 2028-Jan-01 00:00:00.0000, -2.377528293774310E+09, -6.115205923522203E+09, 1.254089802042219E+09,
$$EOE